{
  "norad_id": 59924,
  "name": "STARLINK-31958",
  "history": [
    {
      "epoch": "2026-03-28T19:15:38.687904Z",
      "apogee_km": 483.7495910033231,
      "perigee_km": 482.2622324429194,
      "latitude_deg": -3.1314376461198205e-05,
      "longitude_deg": 94.93682036006489,
      "height_km": 483.34949788834865,
      "semi_major_axis_km": 6861.142911723121,
      "eccentricity": 0.00010839,
      "inclination_deg": 43.0004,
      "raan_deg": 210.0658,
      "arg_perigee_deg": 220.2583,
      "mean_anomaly_deg": 139.8188,
      "mean_motion_rev_day": 15.27594422
    }
  ]
}